ONEWEB-0710             
1 55173U 23004AK  23255.91667824  .00000013  00000+0  00000+0 0  9992
2 55173  87.9434 206.2387 0002812  88.9691 217.0142 13.23594721  5199
ONEWEB-0711             
1 55174U 23004AL  23255.83645042  .00000140  00000+0  35840-3 0  9997
2 55174  87.8944 221.3637 0000874  79.5993 280.5234 13.11406517 33671
ONEWEB-0713             
1 55175U 23004AM  23255.85657456 -.00000504  00000+0 -14567-2 0  9990
2 55175  87.8942 221.3692 0001279  91.7418 268.3857 13.11413637 33664
ONEWEB-0715             
1 55176U 23004AN  23255.85128475 -.00000437  00000+0 -12680-2 0  9994
2 55176  87.8924 221.3863 0001442  98.0175 262.1116 13.11404866 33706
ONEWEB-0716             
1 55177U 23004AP  23255.91667824  .00000013  00000+0  00000+0 0  9996
2 55177  87.9433 206.2491 0002923  88.6356 131.3212 13.28285878  5300
ONEWEB-0717             
1 55178U 23004AQ  23255.91667824  .00000013  00000+0  00000+0 0  9997
2 55178  87.9494 206.1954 0001607  76.7041 240.5963 13.26827672  5182
ONEWEB-0719             
1 55179U 23004AR  23255.91667824 -.00023057  00000+0 -54030-1 0  9997
2 55179  87.9441 206.1806 0004655 131.4014 162.5267 13.24230762  5306
ONEWEB-0530             
1 55796U 23029A   23255.91667824 -.01042435  00000+0 -50342+0 0  9991
2 55796  87.0425 118.0685 0002883 115.0372 162.0718 14.22094628 28495
